{
  "type": "FeatureCollection",
  "name": "velachery_boundary",
  "features": [
    {
      "type": "Feature",
      "geometry": {
        "type": "Polygon",
        "coordinates": [
          [
            [
              80.18924072432405,
              12.984382453636144
            ],
            [
              80.20064003709274,
              12.963105085433698
            ],
            [
              80.21090836332357,
              12.962495476321408
            ],
            [
              80.22081448082439,
              12.964569061181455
            ],
            [
              80.2283022123415,
              12.97913599192613
            ],
            [
              80.22226331623483,
              12.988380342443264
            ],
            [
              80.19952421709984,
              12.991442642884836
            ],
            [
              80.18924072432405,
              12.984382453636144
            ]
          ]
        ]
      },
      "properties": {
        "area_name": "Velachery Prototype Study Area",
        "source": "convex_hull_of_drainage_nodes_buffered_300m"
      }
    }
  ]
}